start=new Date('2022-01-07T00:00:00.000Z').valueOf();
sats=[{"INCLINATION":"53.0536","MEAN_ELEMENT_THEORY":"SGP4","DECAY_DATE":null,"CENTER_NAME":"EARTH","SITE":"AFETR","ELEMENT_SET_NO":"999","EPHEMERIS_TYPE":"0","OBJECT_ID":"2020-070AU","EPOCH":"2022-01-06T19:23:29.549760","RA_OF_ASC_NODE":"158.1045","BSTAR":"0.00007772900000","ARG_OF_PERICENTER":"91.0197","NORAD_CAT_ID":"46574","REV_AT_EPOCH":"7018","RCS_SIZE":"LARGE","TIME_SYSTEM":"UTC","PERIOD":"95.592","CLASSIFICATION_TYPE":"U","ECCENTRICITY":"0.00018970","OBJECT_TYPE":"PAYLOAD","SEMIMAJOR_AXIS":"6925.345","REF_FRAME":"TEME","COUNTRY_CODE":"US","MEAN_MOTION":"15.06401268","LAUNCH_DATE":"2020-10-06","TLE_LINE1":"1 46574U 20070AU  22006.80798090  .00000876  00000-0  77729-4 0  9993","TLE_LINE2":"2 46574  53.0536 158.1045 0001897  91.0197 269.1009 15.06401268 70182","APOAPSIS":"548.523","FILE":"3265870","MEAN_MOTION_DDOT":"0.0000000000000","PERIAPSIS":"545.896","MEAN_ANOMALY":"269.1009","OBJECT_NAME":"STARLINK-1660","MEAN_MOTION_DOT":"0.00000876","GP_ID":"193354791"},{"PERIOD":"95.592","TIME_SYSTEM":"UTC","CLASSIFICATION_TYPE":"U","OBJECT_TYPE":"PAYLOAD","ECCENTRICITY":"0.00019800","MEAN_MOTION":"15.06402095","COUNTRY_CODE":"US","SEMIMAJOR_AXIS":"6925.342","REF_FRAME":"TEME","RA_OF_ASC_NODE":"133.1342","BSTAR":"0.00018714000000","EPOCH":"2022-01-06T19:12:11.171520","NORAD_CAT_ID":"46575","ARG_OF_PERICENTER":"94.4337","REV_AT_EPOCH":"7052","RCS_SIZE":"LARGE","OBJECT_ID":"2020-070AV","MEAN_ELEMENT_THEORY":"SGP4","INCLINATION":"53.0531","DECAY_DATE":null,"CENTER_NAME":"EARTH","SITE":"AFETR","ELEMENT_SET_NO":"999","EPHEMERIS_TYPE":"0","PERIAPSIS":"545.836","MEAN_ANOMALY":"265.6879","OBJECT_NAME":"STARLINK-1675","GP_ID":"193354541","MEAN_MOTION_DOT":"0.00002507","APOAPSIS":"548.578","FILE":"3265870","MEAN_MOTION_DDOT":"0.0000000000000","TLE_LINE1":"1 46575U 20070AV  22006.80012930  .00002507  00000-0  18714-3 0  9997","TLE_LINE2":"2 46575  53.0531 133.1342 0001980  94.4337 265.6879 15.06402095 70520","LAUNCH_DATE":"2020-10-06"},{"REF_FRAME":"TEME","SEMIMAJOR_AXIS":"6925.363","MEAN_MOTION":"15.06395185","COUNTRY_CODE":"US","ECCENTRICITY":"0.00017990","OBJECT_TYPE":"PAYLOAD","CLASSIFICATION_TYPE":"U","TIME_SYSTEM":"UTC","PERIOD":"95.592","RCS_SIZE":"LARGE","REV_AT_EPOCH":"7017","ARG_OF_PERICENTER":"78.1074","NORAD_CAT_ID":"46576","EPOCH":"2022-01-06T17:37:21.392832","BSTAR":"-0.00004870800000","RA_OF_ASC_NODE":"158.4261","OBJECT_ID":"2020-070AW","EPHEMERIS_TYPE":"0","ELEMENT_SET_NO":"999","SITE":"AFETR","CENTER_NAME":"EARTH","DECAY_DATE":null,"INCLINATION":"53.0536","MEAN_ELEMENT_THEORY":"SGP4","MEAN_MOTION_DOT":"-0.00001007","GP_ID":"193353790","OBJECT_NAME":"STARLINK-1677","MEAN_ANOMALY":"282.0117","PERIAPSIS":"545.982","MEAN_MOTION_DDOT":"0.0000000000000","FILE":"3265870","APOAPSIS":"548.474","TLE_LINE2":"2 46576  53.0536 158.4261 0001799  78.1074 282.0117 15.06395185 70171","TLE_LINE1":"1 46576U 20070AW  22006.73427538 -.00001007  00000-0 -48708-4 0  9997","LAUNCH_DATE":"2020-10-06"},{"RCS_SIZE":"LARGE","REV_AT_EPOCH":"7015","NORAD_CAT_ID":"46577","ARG_OF_PERICENTER":"97.2535","RA_OF_ASC_NODE":"158.8998","BSTAR":"0.00007445400000","EPOCH":"2022-01-06T15:08:44.199168","COUNTRY_CODE":"US","MEAN_MOTION":"15.06391320","SEMIMAJOR_AXIS":"6925.375","REF_FRAME":"TEME","OBJECT_TYPE":"PAYLOAD","ECCENTRICITY":"0.00020650","CLASSIFICATION_TYPE":"U","PERIOD":"95.593","TIME_SYSTEM":"UTC","EPHEMERIS_TYPE":"0","SITE":"AFETR","CENTER_NAME":"EARTH","ELEMENT_SET_NO":"999","DECAY_DATE":null,"MEAN_ELEMENT_THEORY":"SGP4","INCLINATION":"53.0543","OBJECT_ID":"2020-070AX","MEAN_MOTION_DDOT":"0.0000000000000","FILE":"3265870","APOAPSIS":"548.670","GP_ID":"193354040","MEAN_MOTION_DOT":"0.00000827","OBJECT_NAME":"STARLINK-1682","PERIAPSIS":"545.810","MEAN_ANOMALY":"262.8688","LAUNCH_DATE":"2020-10-06","TLE_LINE2":"2 46577  53.0543 158.8998 0002065  97.2535 262.8688 15.06391320 70156","TLE_LINE1":"1 46577U 20070AX  22006.63106712  .00000827  00000-0  74454-4 0  9999"},{"MEAN_MOTION_DDOT":"0.0000000000000","FILE":"3265870","APOAPSIS":"548.846","OBJECT_NAME":"STARLINK-1683","PERIAPSIS":"545.677","MEAN_ANOMALY":"269.2501","GP_ID":"193354291","MEAN_MOTION_DOT":"-0.00001094","LAUNCH_DATE":"2020-10-06","TLE_LINE1":"1 46578U 20070AY  22006.80659044 -.00001094  00000-0 -54556-4 0  9990","TLE_LINE2":"2 46578  53.0543 143.1141 0002288  90.8750 269.2501 15.06384383 70391","NORAD_CAT_ID":"46578","ARG_OF_PERICENTER":"90.8750","BSTAR":"-0.00005455600000","RA_OF_ASC_NODE":"143.1141","EPOCH":"2022-01-06T19:21:29.414016","RCS_SIZE":"LARGE","REV_AT_EPOCH":"7039","CLASSIFICATION_TYPE":"U","PERIOD":"95.593","TIME_SYSTEM":"UTC","MEAN_MOTION":"15.06384383","COUNTRY_CODE":"US","REF_FRAME":"TEME","SEMIMAJOR_AXIS":"6925.396","OBJECT_TYPE":"PAYLOAD","ECCENTRICITY":"0.00022880","DECAY_DATE":null,"MEAN_ELEMENT_THEORY":"SGP4","INCLINATION":"53.0543","EPHEMERIS_TYPE":"0","SITE":"AFETR","CENTER_NAME":"EARTH","ELEMENT_SET_NO":"999","OBJECT_ID":"2020-070AY"},{"MEAN_MOTION_DDOT":"0.0000000000000","APOAPSIS":"548.639","FILE":"3265870","OBJECT_NAME":"STARLINK-1705","PERIAPSIS":"545.845","MEAN_ANOMALY":"263.9287","MEAN_MOTION_DOT":"0.00000740","GP_ID":"193355042","LAUNCH_DATE":"2020-10-06","TLE_LINE1":"1 46579U 20070AZ  22006.81536390  .00000740  00000-0  68614-4 0  9995","TLE_LINE2":"2 46579  53.0534 158.0695 0002017  96.1931 263.9287 15.06390637 70189","ARG_OF_PERICENTER":"96.1931","NORAD_CAT_ID":"46579","EPOCH":"2022-01-06T19:34:07.440960","BSTAR":"0.00006861400000","RA_OF_ASC_NODE":"158.0695","RCS_SIZE":"LARGE","REV_AT_EPOCH":"7018","CLASSIFICATION_TYPE":"U","TIME_SYSTEM":"UTC","PERIOD":"95.593","SEMIMAJOR_AXIS":"6925.377","REF_FRAME":"TEME","COUNTRY_CODE":"US","MEAN_MOTION":"15.06390637","ECCENTRICITY":"0.00020170","OBJECT_TYPE":"PAYLOAD","DECAY_DATE":null,"INCLINATION":"53.0534","MEAN_ELEMENT_THEORY":"SGP4","EPHEMERIS_TYPE":"0","SITE":"AFETR","ELEMENT_SET_NO":"999","CENTER_NAME":"EARTH","OBJECT_ID":"2020-070AZ"},{"GP_ID":"193353290","MEAN_MOTION_DOT":"0.00000545","PERIAPSIS":"545.619","MEAN_ANOMALY":"266.3639","OBJECT_NAME":"STARLINK-1708","FILE":"3265870","APOAPSIS":"548.875","MEAN_MOTION_DDOT":"0.0000000000000","TLE_LINE2":"2 46580  53.0538 158.1601 0002351  93.7619 266.3639 15.06389101 70182","TLE_LINE1":"1 46580U 20070BA  22006.79324952  .00000545  00000-0  55537-4 0  9996","LAUNCH_DATE":"2020-10-06","OBJECT_TYPE":"PAYLOAD","ECCENTRICITY":"0.00023510","COUNTRY_CODE":"US","MEAN_MOTION":"15.06389101","SEMIMAJOR_AXIS":"6925.382","REF_FRAME":"TEME","PERIOD":"95.593","TIME_SYSTEM":"UTC","CLASSIFICATION_TYPE":"U","REV_AT_EPOCH":"7018","RCS_SIZE":"LARGE","BSTAR":"0.00005553700000","RA_OF_ASC_NODE":"158.1601","EPOCH":"2022-01-06T19:02:16.758528","NORAD_CAT_ID":"46580","ARG_OF_PERICENTER":"93.7619","OBJECT_ID":"2020-070BA","CENTER_NAME":"EARTH","SITE":"AFETR","ELEMENT_SET_NO":"999","EPHEMERIS_TYPE":"0","MEAN_ELEMENT_THEORY":"SGP4","INCLINATION":"53.0538","DECAY_DATE":null},{"REV_AT_EPOCH":"7022","RCS_SIZE":"LARGE","BSTAR":"-0.00001461100000","RA_OF_ASC_NODE":"153.9038","EPOCH":"2022-01-06T15:01:26.377536","NORAD_CAT_ID":"46581","ARG_OF_PERICENTER":"94.4702","OBJECT_TYPE":"PAYLOAD","ECCENTRICITY":"0.00021890","MEAN_MOTION":"15.06385940","COUNTRY_CODE":"US","REF_FRAME":"TEME","SEMIMAJOR_AXIS":"6925.392","PERIOD":"95.593","TIME_SYSTEM":"UTC","CLASSIFICATION_TYPE":"U","SITE":"AFETR","ELEMENT_SET_NO":"999","CENTER_NAME":"EARTH","EPHEMERIS_TYPE":"0","MEAN_ELEMENT_THEORY":"SGP4","INCLINATION":"53.0562","DECAY_DATE":null,"OBJECT_ID":"2020-070BB","APOAPSIS":"548.773","FILE":"3265870","MEAN_MOTION_DDOT":"0.0000000000000","GP_ID":"193353540","MEAN_MOTION_DOT":"-0.00000499","MEAN_ANOMALY":"265.6537","PERIAPSIS":"545.741","OBJECT_NAME":"STARLINK-1712","LAUNCH_DATE":"2020-10-06","TLE_LINE2":"2 46581  53.0562 153.9038 0002189  94.4702 265.6537 15.06385940 70228","TLE_LINE1":"1 46581U 20070BB  22006.62599974 -.00000499  00000-0 -14611-4 0  9995"},{"BSTAR":"-0.00004994500000","RA_OF_ASC_NODE":"153.6333","EPOCH":"2022-01-06T16:15:44.743680","NORAD_CAT_ID":"46582","ARG_OF_PERICENTER":"98.2858","REV_AT_EPOCH":"7023","RCS_SIZE":"LARGE","PERIOD":"95.593","TIME_SYSTEM":"UTC","CLASSIFICATION_TYPE":"U","OBJECT_TYPE":"PAYLOAD","ECCENTRICITY":"0.00022590","MEAN_MOTION":"15.06393420","COUNTRY_CODE":"US","REF_FRAME":"TEME","SEMIMAJOR_AXIS":"6925.369","MEAN_ELEMENT_THEORY":"SGP4","INCLINATION":"53.0570","DECAY_DATE":null,"ELEMENT_SET_NO":"999","SITE":"AFETR","CENTER_NAME":"EARTH","EPHEMERIS_TYPE":"0","OBJECT_ID":"2020-070BC","FILE":"3265870","APOAPSIS":"548.798","MEAN_MOTION_DDOT":"0.0000000000000","PERIAPSIS":"545.669","MEAN_ANOMALY":"261.8387","OBJECT_NAME":"STARLINK-1728","GP_ID":"193354792","MEAN_MOTION_DOT":"-0.00001026","LAUNCH_DATE":"2020-10-06","TLE_LINE1":"1 46582U 20070BC  22006.67760120 -.00001026  00000-0 -49945-4 0  9999","TLE_LINE2":"2 46582  53.0570 153.6333 0002259  98.2858 261.8387 15.06393420 70239"},{"TLE_LINE1":"1 46583U 20070BD  22006.86006949  .00000671  00000-0  63965-4 0  9994","TLE_LINE2":"2 46583  53.0521 172.8691 0002214  90.6099 269.5143 15.06389088 69979","LAUNCH_DATE":"2020-10-06","PERIAPSIS":"545.714","MEAN_ANOMALY":"269.5143","OBJECT_NAME":"STARLINK-1729","GP_ID":"193354542","MEAN_MOTION_DOT":"0.00000671","APOAPSIS":"548.780","FILE":"3265870","MEAN_MOTION_DDOT":"0.0000000000000","OBJECT_ID":"2020-070BD","MEAN_ELEMENT_THEORY":"SGP4","INCLINATION":"53.0521","DECAY_DATE":null,"ELEMENT_SET_NO":"999","SITE":"AFETR","CENTER_NAME":"EARTH","EPHEMERIS_TYPE":"0","PERIOD":"95.593","TIME_SYSTEM":"UTC","CLASSIFICATION_TYPE":"U","OBJECT_TYPE":"PAYLOAD","ECCENTRICITY":"0.00022140","MEAN_MOTION":"15.06389088","COUNTRY_CODE":"US","REF_FRAME":"TEME","SEMIMAJOR_AXIS":"6925.382","RA_OF_ASC_NODE":"172.8691","BSTAR":"0.00006396500000","EPOCH":"2022-01-06T20:38:30.003936","NORAD_CAT_ID":"46583","ARG_OF_PERICENTER":"90.6099","REV_AT_EPOCH":"6997","RCS_SIZE":"LARGE"}];
